OBJECT_NAME,OBJECT_ID,EPOCH,MEAN_MOTION,ECCENTRICITY,INCLINATION,RA_OF_ASC_NODE,ARG_OF_PERICENTER,MEAN_ANOMALY,EPHEMERIS_TYPE,CLASSIFICATION_TYPE,NORAD_CAT_ID,ELEMENT_SET_NO,REV_AT_EPOCH,BSTAR,MEAN_MOTION_DOT,MEAN_MOTION_DDOT
STARLINK-3884,2022-049AY,2026-07-17T14:00:01.999872,15.13882445,.00036172,53.1613,185.6683,79.3607,322.7966,0,U,52497,999,575,.92867328E-3,.16738E-3,0
STARLINK-3925,2022-049AZ,2026-07-17T02:13:19.975584,15.08836385,.00006858,53.1596,177.9314,88.1110,271.9960,0,U,52498,999,23206,.38087917E-4,.318E-5,0
STARLINK-3866,2022-049BB,2026-07-17T10:04:57.215424,15.08831455,.00010676,53.1602,176.4578,77.4723,282.6388,0,U,52500,999,23211,-.4010103E-5,-.352E-5,0
STARLINK-3907,2022-049BC,2026-07-17T11:42:48.980160,15.09683619,.00011849,53.1594,185.9402,95.8015,264.3112,0,U,52501,999,23199,.60889853E-2,.1003E-2,0
STARLINK-3912,2022-049BD,2026-07-17T08:24:16.361568,15.08835520,.00015055,53.1597,176.8026,83.4920,276.6243,0,U,52502,999,23210,-.23128216E-4,-.656E-5,0
STARLINK-3861,2022-049BE,2026-07-16T22:36:02.383200,15.08834467,.00012297,53.1596,178.4927,72.9000,287.2126,0,U,52503,999,23204,.28605164E-4,.167E-5,0
STARLINK-3958,2022-051C,2026-07-17T14:00:01.999872,15.26054524,.00000466,53.1605,264.8155,341.1897,3.6047,0,U,52535,999,584,.26202122E-2,.68667E-3,0
STARLINK-3964,2022-051D,2026-07-17T14:00:01.999872,15.27038664,.00015692,53.1592,264.7217,25.5859,26.4743,0,U,52536,999,584,.25099425E-2,.67748E-3,0
STARLINK-3897,2022-051E,2026-07-17T14:00:01.999872,15.18641544,.00003677,53.1601,265.0773,355.1618,255.3496,0,U,52537,999,580,.3449302E-2,.72727E-3,0
STARLINK-3933,2022-051F,2026-07-17T11:20:46.143456,15.34390080,.00012039,53.1599,261.4541,80.1213,279.9926,0,U,52538,999,23110,.33900948E-4,.769E-5,0
STARLINK-3757,2022-051G,2026-07-17T14:00:01.999872,15.26236941,.00015539,53.1592,264.8203,22.2163,19.2068,0,U,52539,999,574,.25565646E-2,.6735E-3,0
STARLINK-3940,2022-051H,2026-07-17T14:00:01.999872,15.19641720,.00006548,53.1604,265.1431,31.6348,283.5297,0,U,52540,999,579,.35009871E-2,.7603E-3,0
STARLINK-3845,2022-051J,2026-07-17T14:00:01.999872,15.22088644,.00020921,53.1602,269.4178,79.2131,64.3251,0,U,52541,999,579,.28551997E-2,.6647E-3,0
STARLINK-3937,2022-051K,2026-07-17T13:36:29.099808,15.35397851,.00010602,53.1604,261.4906,69.8261,290.2856,0,U,52542,999,23111,.46801749E-4,.1252E-4,0
STARLINK-3926,2022-051L,2026-07-17T14:00:01.999872,15.19509564,.00017468,53.1600,265.0938,357.8007,302.3347,0,U,52543,999,574,.34176447E-2,.73907E-3,0
STARLINK-3944,2022-051M,2026-07-17T05:03:33.303168,15.08838553,.00010024,53.1590,272.4124,83.0010,277.1095,0,U,52544,999,23092,.33472116E-4,.245E-5,0
STARLINK-3948,2022-051P,2026-07-17T14:00:01.999872,15.35292357,.00014416,53.1597,261.5136,55.0256,21.8459,0,U,52546,999,586,.20719126E-2,.72338E-3,0
STARLINK-3931,2022-051R,2026-07-17T14:00:01.999872,15.24822570,.00008664,53.1601,264.6357,93.5084,264.2845,0,U,52548,999,584,.29246898E-2,.73945E-3,0
STARLINK-3935,2022-051S,2026-07-17T14:00:01.999872,15.20337300,.00028019,53.1593,265.0773,57.0871,333.9759,0,U,52549,999,580,.32383161E-2,.71704E-3,0
STARLINK-3965,2022-051T,2026-07-17T14:00:01.999872,15.26346581,.00018206,53.1589,264.8458,98.9168,111.9218,0,U,52550,999,584,.26472069E-2,.70007E-3,0
STARLINK-3969,2022-051U,2026-07-17T14:00:01.999872,15.27215925,.00020836,53.1590,264.8162,87.0801,98.4223,0,U,52551,999,580,.25902365E-2,.7033E-3,0
STARLINK-3966,2022-051V,2026-07-17T14:00:01.999872,15.31673742,.00011781,53.1596,264.0148,68.2201,266.3821,0,U,52552,999,580,.14367426E-2,.44448E-3,0
STARLINK-3770,2022-051X,2026-07-17T11:19:47.999712,15.08840364,.00005296,53.1592,271.2288,77.1225,282.9825,0,U,52554,999,23096,.85075995E-4,.1067E-4,0
STARLINK-3943,2022-051AA,2026-07-17T14:00:01.999872,15.22468558,.00012418,53.1589,265.1859,53.7669,60.3615,0,U,52557,999,579,.29644699E-2,.69837E-3,0
STARLINK-3953,2022-051AC,2026-07-17T03:54:03.048192,15.08833101,.00009137,53.1585,257.7982,80.0271,280.0823,0,U,52559,999,23112,.62369037E-4,.705E-5,0
STARLINK-3956,2022-051AD,2026-07-17T03:32:49.653888,15.08818821,.00012042,53.1580,257.6834,85.8945,274.2184,0,U,52560,999,23112,.4527035E-4,.432E-5,0
STARLINK-3955,2022-051AE,2026-07-17T14:00:01.999872,15.30968635,.00002676,53.1597,269.2010,43.5269,329.5746,0,U,52561,999,584,.21190479E-2,.64471E-3,0
STARLINK-3957,2022-051AF,2026-07-17T10:41:22.655040,15.34391641,.00011688,53.1599,251.8657,61.9195,298.1926,0,U,52562,999,23123,.43695405E-4,.11E-4,0
STARLINK-3942,2022-051AG,2026-07-17T14:00:01.999872,15.24674915,.00023194,53.1609,269.4131,69.2754,176.2717,0,U,52563,999,584,.26559162E-2,.66758E-3,0
STARLINK-3959,2022-051AH,2026-07-17T04:38:26.828448,15.08830786,.0000995,53.1587,272.4886,68.1215,291.9882,0,U,52564,999,23092,.4565627E-4,.439E-5,0
