STARLINK-3884           
1 52497U 22049AY  26198.58335648  .00016738  00000+0  92867-3 0  9991
2 52497  53.1613 185.6683 0003617  79.3607 322.7966 15.13882445  5757
STARLINK-3925           
1 52498U 22049AZ  26198.09259231  .00000318  00000+0  38088-4 0  9994
2 52498  53.1596 177.9314 0000685  88.1110 271.9960 15.08836385232063
STARLINK-3866           
1 52500U 22049BB  26198.42010666 -.00000352  00000+0 -40101-5 0  9992
2 52500  53.1602 176.4578 0001067  77.4723 282.6388 15.08831455232119
STARLINK-3907           
1 52501U 22049BC  26198.48806690  .00100300  00000+0  60890-2 0  9995
2 52501  53.1594 185.9402 0001184  95.8015 264.3112 15.09683619231994
STARLINK-3912           
1 52502U 22049BD  26198.35018937 -.00000656  00000+0 -23128-4 0  9991
2 52502  53.1597 176.8026 0001505  83.4920 276.6243 15.08835520232108
STARLINK-3861           
1 52503U 22049BE  26197.94169425  .00000167  00000+0  28605-4 0  9995
2 52503  53.1596 178.4927 0001229  72.9000 287.2126 15.08834467232041
STARLINK-3958           
1 52535U 22051C   26198.58335648  .00068667  00000+0  26202-2 0  9994
2 52535  53.1605 264.8155 0000046 341.1897   3.6047 15.26054524  5847
STARLINK-3964           
1 52536U 22051D   26198.58335648  .00067748  00000+0  25099-2 0  9997
2 52536  53.1592 264.7217 0001569  25.5859  26.4743 15.27038664  5847
STARLINK-3897           
1 52537U 22051E   26198.58335648  .00072727  00000+0  34493-2 0  9999
2 52537  53.1601 265.0773 0000367 355.1618 255.3496 15.18641544  5801
STARLINK-3933           
1 52538U 22051F   26198.47275629  .00000769  00000+0  33901-4 0  9992
2 52538  53.1599 261.4541 0001203  80.1213 279.9926 15.34390080231105
STARLINK-3757           
1 52539U 22051G   26198.58335648  .00067350  00000+0  25566-2 0  9998
2 52539  53.1592 264.8203 0001553  22.2163  19.2068 15.26236941  5747
STARLINK-3940           
1 52540U 22051H   26198.58335648  .00076030  00000+0  35010-2 0  9990
2 52540  53.1604 265.1431 0000654  31.6348 283.5297 15.19641720  5792
STARLINK-3845           
1 52541U 22051J   26198.58335648  .00066470  00000+0  28552-2 0  9991
2 52541  53.1602 269.4178 0002092  79.2131  64.3251 15.22088644  5791
STARLINK-3937           
1 52542U 22051K   26198.56700347  .00001252  00000+0  46802-4 0  9999
2 52542  53.1604 261.4906 0001060  69.8261 290.2856 15.35397851231113
STARLINK-3926           
1 52543U 22051L   26198.58335648  .00073907  00000+0  34176-2 0  9995
2 52543  53.1600 265.0938 0001746 357.8007 302.3347 15.19509564  5740
STARLINK-3944           
1 52544U 22051M   26198.21080212  .00000245  00000+0  33472-4 0  9995
2 52544  53.1590 272.4124 0001002  83.0010 277.1095 15.08838553230925
STARLINK-3948           
1 52546U 22051P   26198.58335648  .00072338  00000+0  20719-2 0  9993
2 52546  53.1597 261.5136 0001441  55.0256  21.8459 15.35292357  5861
STARLINK-3931           
1 52548U 22051R   26198.58335648  .00073945  00000+0  29247-2 0  9995
2 52548  53.1601 264.6357 0000866  93.5084 264.2845 15.24822570  5848
STARLINK-3935           
1 52549U 22051S   26198.58335648  .00071704  00000+0  32383-2 0  9992
2 52549  53.1593 265.0773 0002801  57.0871 333.9759 15.20337300  5808
STARLINK-3965           
1 52550U 22051T   26198.58335648  .00070007  00000+0  26472-2 0  9991
2 52550  53.1589 264.8458 0001820  98.9168 111.9218 15.26346581  5840
STARLINK-3969           
1 52551U 22051U   26198.58335648  .00070330  00000+0  25902-2 0  9998
2 52551  53.1590 264.8162 0002083  87.0801  98.4223 15.27215925  5809
STARLINK-3966           
1 52552U 22051V   26198.58335648  .00044448  00000+0  14367-2 0  9993
2 52552  53.1596 264.0148 0001178  68.2201 266.3821 15.31673742  5801
STARLINK-3770           
1 52554U 22051X   26198.47208333  .00001067  00000+0  85076-4 0  9990
2 52554  53.1592 271.2288 0000529  77.1225 282.9825 15.08840364230963
STARLINK-3943           
1 52557U 22051AA  26198.58335648  .00069837  00000+0  29645-2 0  9992
2 52557  53.1589 265.1859 0001241  53.7669  60.3615 15.22468558  5795
STARLINK-3953           
1 52559U 22051AC  26198.16253528  .00000705  00000+0  62369-4 0  9995
2 52559  53.1585 257.7982 0000913  80.0271 280.0823 15.08833101231128
STARLINK-3956           
1 52560U 22051AD  26198.14779692  .00000432  00000+0  45270-4 0  9999
2 52560  53.1580 257.6834 0001204  85.8945 274.2184 15.08818821231122
STARLINK-3955           
1 52561U 22051AE  26198.58335648  .00064471  00000+0  21190-2 0  9993
2 52561  53.1597 269.2010 0000267  43.5269 329.5746 15.30968635  5844
STARLINK-3957           
1 52562U 22051AF  26198.44540110  .00001100  00000+0  43695-4 0  9997
2 52562  53.1599 251.8657 0001168  61.9195 298.1926 15.34391641231230
STARLINK-3942           
1 52563U 22051AG  26198.58335648  .00066758  00000+0  26559-2 0  9999
2 52563  53.1609 269.4131 0002319  69.2754 176.2717 15.24674915  5843
STARLINK-3959           
1 52564U 22051AH  26198.19336607  .00000439  00000+0  45656-4 0  9998
2 52564  53.1587 272.4886 0000995  68.1215 291.9882 15.08830786230927
